{"epoch":1784710044,"count":18256,"objects":[{"id":"25118","name":"ORBCOMM FM 6","type":"PAYLOAD","l1":"1 25118U 97084G   26202.43251985  .00000591  00000-0  19789-3 0  9996","l2":"2 25118  45.0126 247.8448 0001865 252.1141 122.4170 14.47635106499354"},{"id":"25159","name":"ORBCOMM FM 4","type":"PAYLOAD","l1":"1 25159U 98007C   26202.53405701  .00000477  00000-0  20870-3 0  9991","l2":"2 25159 107.9632 240.1135 0042031 266.1480  93.4854 14.35791531481527"},{"id":"25415","name":"ORBCOMM FM 19","type":"PAYLOAD","l1":"1 25415U 98046C   26202.63495882  .00000629  00000-0  24520-3 0  9994","l2":"2 25415  44.9940  79.8100 0003282 105.1931 275.6377 14.39549967461745"},{"id":"25416","name":"ORBCOMM FM 20","type":"PAYLOAD","l1":"1 25416U 98046D   26202.40030915  .00000449  00000-0  19344-3 0  9990","l2":"2 25416  44.9942  89.2269 0000930  43.8049 316.2873 14.38106485461717"},{"id":"25481","name":"ORBCOMM FM 27","type":"PAYLOAD","l1":"1 25481U 98053G   26202.34073752  .00000547  00000-0  22048-3 0  9993","l2":"2 25481  45.0036 173.1269 0002126 313.6498  46.4175 14.39192165455152"},{"id":"25982","name":"ORBCOMM FM 32","type":"PAYLOAD","l1":"1 25982U 99065C   26202.21356163  .00000360  00000-0  16713-3 0  9994","l2":"2 25982  45.0165  12.1737 0006204 220.5400 139.4987 14.37173300391985"},{"id":"40086","name":"ORBCOMM FM 109","type":"PAYLOAD","l1":"1 40086U 14040A   26202.54713748  .00000082  00000-0  53546-4 0  9995","l2":"2 40086  47.0029 289.0324 0001122 343.3049  16.7800 14.58874474639363"},{"id":"41182","name":"ORBCOMM FM 110","type":"PAYLOAD","l1":"1 41182U 15081D   26202.41475884  .00000480  00000-0  13754-3 0  9999","l2":"2 41182  47.0001 199.5989 0003783 246.7242 113.3245 14.58924929562621"},{"id":"41183","name":"ORBCOMM FM 118","type":"PAYLOAD","l1":"1 41183U 15081E   26202.03834403  .00000445  00000-0  13038-3 0  9990","l2":"2 41183  47.0024 201.7190 0003151 211.5269 148.5428 14.58909261562675"},{"id":"41184","name":"ORBCOMM FM 112","type":"PAYLOAD","l1":"1 41184U 15081F   26202.45310861  .00000440  00000-0  12905-3 0  9991","l2":"2 41184  46.9989 108.2060 0003306 356.1147   3.9713 14.58944878563950"},{"id":"41185","name":"ORBCOMM FM 113","type":"PAYLOAD","l1":"1 41185U 15081G   26202.15700965  .00000226  00000-0  84079-4 0  9991","l2":"2 41185  47.0006 110.0008 0001894 345.4787  14.6045 14.58886089563896"},{"id":"41187","name":"ORBCOMM FM 108","type":"PAYLOAD","l1":"1 41187U 15081J   26202.52979508  .00000404  00000-0  12167-3 0  9991","l2":"2 41187  47.0059  19.8197 0002246 347.1924  12.8904 14.58916485565097"},{"id":"41188","name":"ORBCOMM FM 117","type":"PAYLOAD","l1":"1 41188U 15081K   26202.56406979  .00000382  00000-0  11700-3 0  9990","l2":"2 41188  47.0022  18.2832 0002626 355.6874   4.3989 14.58903429565146"},{"id":"41189","name":"ORBCOMM FM 116","type":"PAYLOAD","l1":"1 41189U 15081L   26202.13326069  .00000331  00000-0  10610-3 0  9998","l2":"2 41189  47.0021 110.1098 0001736 245.9609 114.1095 14.58911587563892"}]}